NORAD_CAT_ID,OBJECT_NAME,OBJECT_TYPE,EPOCH,MEAN_MOTION,ECCENTRICITY,INCLINATION,RA_OF_ASC_NODE,ARG_OF_PERICENTER,MEAN_ANOMALY,BSTAR,MEAN_MOTION_DOT,MEAN_MOTION_DDOT,TLE_LINE0,TLE_LINE1,TLE_LINE2,SEMIMAJOR_AXIS,PERIOD,APOGEE,PERIGEE,DECAYED
55959.0,STARLINK-5929,PAYLOAD,2024-07-15 18:47:11,14.98331004,0.000276,70.0023,342.0661,263.4618,96.6227,3.0249e-05,2.68e-06,0.0,0 STARLINK-5929,1 55959U 23037AX  24197.78277121  .00000268  00000-0  30249-4 0  9994,2 55959  70.0023 342.0661 0002760 263.4618  96.6227 14.98331004 74314,6950.19,96.107,573.973,570.137,0.0
55959.0,STARLINK-5929,PAYLOAD,2024-07-16 12:24:39,14.98333462,0.0002813,70.0021,340.2144,263.273,96.8109,2.7876e-05,2.4e-06,0.0,0 STARLINK-5929,1 55959U 23037AX  24198.51712822  .00000240  00000-0  27876-4 0  9990,2 55959  70.0021 340.2144 0002813 263.2730  96.8109 14.98333462 74760,6950.182,96.107,574.002,570.092,0.0
55959.0,STARLINK-5929,PAYLOAD,2024-07-16 14:00:47,14.98333374,0.0002817,70.0021,340.0461,263.3209,96.7629,2.5825e-05,2.15e-06,0.0,0 STARLINK-5929,1 55959U 23037AX  24198.58388817  .00000215  00000-0  25825-4 0  9994,2 55959  70.0021 340.0461 0002817 263.3209  96.7629 14.98333374 74438,6950.182,96.107,574.005,570.09,0.0
55959.0,STARLINK-5929,PAYLOAD,2024-07-16 18:49:11,14.98337115,0.0002792,70.0022,339.5412,262.9905,97.0937,6.7419e-05,7.12e-06,0.0,0 STARLINK-5929,1 55959U 23037AX  24198.78416414  .00000712  00000-0  67419-4 0  9998,2 55959  70.0022 339.5412 0002792 262.9905  97.0937 14.98337115 74464,6950.171,96.107,573.976,570.095,0.0
55959.0,STARLINK-5929,PAYLOAD,2024-07-17 12:26:41,14.98319201,0.0002866,70.0013,337.6874,269.6523,90.4307,0.00013676,1.539e-05,0.0,0 STARLINK-5929,1 55959U 23037AX  24199.51853571  .00001539  00000-0  13676-3 0  9992,2 55959  70.0013 337.6874 0002866 269.6523  90.4307 14.98319201 74911,6950.226,96.108,574.083,570.099,0.0
55959.0,STARLINK-5929,PAYLOAD,2024-07-17 14:02:49,14.98317916,0.0002849,70.0026,337.5205,268.961,91.1223,6.9789e-05,7.4e-06,0.0,0 STARLINK-5929,1 55959U 23037AX  24199.58529849  .00000740  00000-0  69789-4 0  9997,2 55959  70.0026 337.5205 0002849 268.9610  91.1223 14.98317916 74581,6950.23,96.108,574.075,570.115,0.0
55959.0,STARLINK-5929,PAYLOAD,2024-07-17 18:51:13,14.98328308,0.0002922,70.0016,337.0157,268.3816,91.7009,2.2422e-05,1.75e-06,0.0,0 STARLINK-5929,1 55959U 23037AX  24199.78557382  .00000175  00000-0  22422-4 0  9997,2 55959  70.0016 337.0157 0002922 268.3816  91.7009 14.98328308 74614,6950.198,96.107,574.094,570.032,0.0
55959.0,STARLINK-5929,PAYLOAD,2024-07-18 12:28:42,14.98334365,0.0002985,70.0013,335.1635,268.5077,91.574,5.7186e-05,5.89e-06,0.0,0 STARLINK-5929,1 55959U 23037AX  24200.51993111  .00000589  00000-0  57186-4 0  9999,2 55959  70.0013 335.1635 0002985 268.5077  91.5740 14.98334365 75061,6950.179,96.107,574.119,569.97,0.0
55959.0,STARLINK-5929,PAYLOAD,2024-07-18 14:04:50,14.9833469,0.000297,70.0014,334.9952,268.2489,91.833,7.0891e-05,7.53e-06,0.0,0 STARLINK-5929,1 55959U 23037AX  24200.58669087  .00000753  00000-0  70891-4 0  9999,2 55959  70.0014 334.9952 0002970 268.2489  91.8330 14.98334690 74731,6950.178,96.107,574.108,569.979,0.0
55959.0,STARLINK-5929,PAYLOAD,2024-07-18 18:53:13,14.98344255,0.0002983,70.0014,334.4901,268.5083,91.5734,0.00018606,2.129e-05,0.0,0 STARLINK-5929,1 55959U 23037AX  24200.78696324  .00002129  00000-0  18606-3 0  9999,2 55959  70.0014 334.4901 0002983 268.5083  91.5734 14.98344255 75102,6950.149,96.106,574.087,569.941,0.0
55959.0,STARLINK-5929,PAYLOAD,2024-07-19 12:30:43,14.98330817,0.0002803,70.0028,332.6384,268.8588,91.225,0.0002462,2.846e-05,0.0,0 STARLINK-5929,1 55959U 23037AX  24201.52133172  .00002846  00000-0  24620-3 0  9998,2 55959  70.0028 332.6384 0002803 268.8588  91.2250 14.98330817 75217,6950.19,96.107,574.004,570.107,0.0
55959.0,STARLINK-5929,PAYLOAD,2024-07-19 14:06:51,14.9833156,0.0002803,70.0029,332.4701,268.8471,91.2366,0.00025143,2.908e-05,0.0,0 STARLINK-5929,1 55959U 23037AX  24201.58809149  .00002908  00000-0  25143-3 0  9998,2 55959  70.0029 332.4701 0002803 268.8471  91.2366 14.98331560 74886,6950.188,96.107,574.001,570.105,0.0
55959.0,STARLINK-5929,PAYLOAD,2024-07-19 18:55:15,14.98335318,0.000265,70.0036,331.9678,265.9289,94.1567,0.00024754,2.862e-05,0.0,0 STARLINK-5929,1 55959U 23037AX  24201.78836966  .00002862  00000-0  24754-3 0  9993,2 55959  70.0036 331.9678 0002650 265.9289  94.1567 14.98335318 74910,6950.176,96.107,573.883,570.2,0.0
55959.0,STARLINK-5929,PAYLOAD,2024-07-20 12:32:44,14.98333207,0.0002637,70.0025,330.1172,263.4299,96.656,2.7909e-05,2.4e-06,0.0,0 STARLINK-5929,1 55959U 23037AX  24202.52273189  .00000240  00000-0  27909-4 0  9992,2 55959  70.0025 330.1172 0002637 263.4299  96.6560 14.98333207 75362,6950.183,96.107,573.881,570.215,0.0
55959.0,STARLINK-5929,PAYLOAD,2024-07-20 14:08:52,14.98333185,0.0002634,70.0025,329.9489,263.4955,96.5905,2.1415e-05,1.63e-06,0.0,0 STARLINK-5929,1 55959U 23037AX  24202.58949162  .00000163  00000-0  21415-4 0  9999,2 55959  70.0025 329.9489 0002634 263.4955  96.5905 14.98333185 75036,6950.183,96.107,573.879,570.217,0.0
55959.0,STARLINK-5929,PAYLOAD,2024-07-20 18:57:15,14.98337203,0.0002608,70.0025,329.4441,263.4764,96.6098,5.966e-05,6.19e-06,0.0,0 STARLINK-5929,1 55959U 23037AX  24202.78976733  .00000619  00000-0  59660-4 0  9994,2 55959  70.0025 329.4441 0002608 263.4764  96.6098 14.98337203 75060,6950.171,96.107,573.848,570.223,0.0
55959.0,STARLINK-5929,PAYLOAD,2024-07-21 12:34:45,14.98326577,0.0002749,70.002,327.5908,265.7905,94.294,2.5523e-06,-6.2e-07,0.0,0 STARLINK-5929,1 55959U 23037AX  24203.52413466 -.00000062  00000-0  25523-5 0  9991,2 55959  70.0020 327.5908 0002749 265.7905  94.2940 14.98326577 75512,6950.203,96.107,573.979,570.158,0.0
55959.0,STARLINK-5929,PAYLOAD,2024-07-21 14:10:53,14.98325131,0.0002754,70.0021,327.4225,266.1787,93.9057,2.2313e-05,1.73e-06,0.0,0 STARLINK-5929,1 55959U 23037AX  24203.59089528  .00000173  00000-0  22313-4 0  9991,2 55959  70.0021 327.4225 0002754 266.1787  93.9057 14.98325131 75186,6950.208,96.107,573.987,570.159,0.0
55959.0,STARLINK-5929,PAYLOAD,2024-07-21 17:23:09,14.9832719,0.0002793,70.0022,327.0859,267.3502,92.7337,4.7555e-05,4.74e-06,0.0,0 STARLINK-5929,1 55959U 23037AX  24203.72441350  .00000474  00000-0  47555-4 0  9990,2 55959  70.0022 327.0859 0002793 267.3502  92.7337 14.98327190 75205,6950.202,96.107,574.008,570.125,0.0
55959.0,STARLINK-5929,PAYLOAD,2024-07-22 09:24:29,14.98328828,0.0002736,70.002,325.4032,261.7562,98.3287,0.00012928,1.45e-05,0.0,0 STARLINK-5929,1 55959U 23037AX  24204.39201020  .00001450  00000-0  12928-3 0  9992,2 55959  70.0020 325.4032 0002736 261.7562  98.3287 14.98328828 75305,6950.197,96.107,573.963,570.16,0.0
55959.0,STARLINK-5929,PAYLOAD,2024-07-23 09:26:30,14.98331276,0.0002839,70.002,322.8779,261.008,99.0758,0.00015175,1.718e-05,0.0,0 STARLINK-5929,1 55959U 23037AX  24205.39340842  .00001718  00000-0  15175-3 0  9993,2 55959  70.0020 322.8779 0002839 261.0080  99.0758 14.98331276 75791,6950.189,96.107,574.027,570.081,0.0
55959.0,STARLINK-5929,PAYLOAD,2024-07-23 14:14:54,14.98330323,0.0003038,70.0012,322.3713,267.786,92.2951,9.7786e-05,1.074e-05,0.0,0 STARLINK-5929,1 55959U 23037AX  24205.59369057  .00001074  00000-0  97786-4 0  9998,2 55959  70.0012 322.3713 0003038 267.7860  92.2951 14.98330323 75484,6950.192,96.107,574.168,569.945,0.0
55959.0,STARLINK-5929,PAYLOAD,2024-07-24 09:28:31,14.98329097,0.0003123,70.0006,320.3504,267.5707,92.5094,3.2745e-06,-5.4e-07,0.0,0 STARLINK-5929,1 55959U 23037AX  24206.39481404 -.00000054  00000-0  32745-5 0  9991,2 55959  70.0006 320.3504 0003123 267.5707  92.5094 14.98329097 75944,6950.196,96.107,574.231,569.89,0.0
55959.0,STARLINK-5929,PAYLOAD,2024-07-25 06:18:16,14.98330977,0.0003047,69.9996,318.1612,265.6971,94.384,9.6896e-05,1.063e-05,0.0,0 STARLINK-5929,1 55959U 23037AX  24207.26268984  .00001063  00000-0  96896-4 0  9990,2 55959  69.9996 318.1612 0003047 265.6971  94.3840 14.98330977 75736,6950.19,96.107,574.173,569.937,0.0
55959.0,STARLINK-5929,PAYLOAD,2024-07-25 09:30:32,14.98331032,0.0003087,69.9996,317.8254,266.364,93.7166,9.4704e-05,1.037e-05,0.0,0 STARLINK-5929,1 55959U 23037AX  24207.39620988  .00001037  00000-0  94704-4 0  9997,2 55959  69.9996 317.8254 0003087 266.3640  93.7166 14.98331032 76096,6950.19,96.107,574.2,569.909,0.0
55959.0,STARLINK-5929,PAYLOAD,2024-07-25 17:31:12,14.98331911,0.0003068,69.9996,316.9836,266.347,93.7339,9.7119e-05,1.066e-05,0.0,0 STARLINK-5929,1 55959U 23037AX  24207.73000921  .00001066  00000-0  97119-4 0  9999,2 55959  69.9996 316.9836 0003068 266.3470  93.7339 14.98331911 75808,6950.187,96.107,574.184,569.92,0.0
55959.0,STARLINK-5929,PAYLOAD,2024-07-26 09:32:33,14.98333842,0.0003082,70.001,315.3019,271.0929,88.9877,9.6998e-05,1.065e-05,0.0,0 STARLINK-5929,1 55959U 23037AX  24208.39760718  .00001065  00000-0  96998-4 0  9992,2 55959  70.0010 315.3019 0003082 271.0929  88.9877 14.98333842 76249,6950.181,96.107,574.188,569.904,0.0
55959.0,STARLINK-5929,PAYLOAD,2024-07-26 17:33:12,14.98343819,0.0002929,70.0008,314.4605,270.6789,89.4034,0.00018765,2.147e-05,0.0,0 STARLINK-5929,1 55959U 23037AX  24208.73139702  .00002147  00000-0  18765-3 0  9990,2 55959  70.0008 314.4605 0002929 270.6789  89.4034 14.98343819 76296,6950.15,96.106,574.051,569.979,0.0
55959.0,STARLINK-5929,PAYLOAD,2024-07-27 09:34:34,14.98333906,0.0002569,69.9972,312.771,249.8264,110.2618,-6.0007e-05,-8.09e-06,0.0,0 STARLINK-5929,1 55959U 23037AX  24209.39900733 -.00000809  00000-0 -60007-4 0  9995,2 55959  69.9972 312.7710 0002569 249.8264 110.2618 14.98333906 76395,6950.181,96.107,573.831,570.26,0.0
55959.0,STARLINK-5929,PAYLOAD,2024-07-27 12:46:50,14.98330473,0.0002813,69.997,312.435,253.3267,106.7583,-6.7117e-05,-8.94e-06,0.0,0 STARLINK-5929,1 55959U 23037AX  24209.53252928 -.00000894  00000-0 -67117-4 0  9990,2 55959  69.9970 312.4350 0002813 253.3267 106.7583 14.98330473 76077,6950.191,96.107,574.012,570.101,0.0
